KNACKSAT-2              
1 67683U 98067XZ  26158.80293920  .00048726  00000+0  61258-3 0  9996
2 67683  51.6303 341.6515 0010362 174.2130 185.8984 15.59121118 18810
GEOSCAN 3 (RS92S3)      
1 64893U 25155T   26158.74202270  .00019166  00000+0  56441-3 0  9999
2 64893  97.4536 128.5112 0005298 191.8218 168.2902 15.35082395 79409
INNOSAT 3 (RS92S0)      
1 64894U 25155U   26158.71781775  .00038688  00000+0  87151-3 0  9991
2 64894  97.4486 129.9920 0004733 175.9075 184.2212 15.43164724 79502
