OBJECT_NAME,OBJECT_ID,EPOCH,MEAN_MOTION,ECCENTRICITY,INCLINATION,RA_OF_ASC_NODE,ARG_OF_PERICENTER,MEAN_ANOMALY,EPHEMERIS_TYPE,CLASSIFICATION_TYPE,NORAD_CAT_ID,ELEMENT_SET_NO,REV_AT_EPOCH,BSTAR,MEAN_MOTION_DOT,MEAN_MOTION_DDOT
GEOSCAN 3 (RS92S3),2025-155T,2026-06-07T17:48:30.761280,15.35082395,.0005298,97.4536,128.5112,191.8218,168.2902,0,U,64893,999,7940,.56441E-3,.19166E-3,0
INNOSAT 3 (RS92S0),2025-155U,2026-06-07T17:13:39.453600,15.43164724,.0004733,97.4486,129.9920,175.9075,184.2212,0,U,64894,999,7950,.87151E-3,.38688E-3,0
KNACKSAT-2,1998-067XZ,2026-06-07T19:16:13.946880,15.59121118,.0010362,51.6303,341.6515,174.2130,185.8984,0,U,67683,999,1881,.61258E-3,.48726E-3,0
